[{"OBJECT_NAME":"ONEWEB-0298","OBJECT_ID":"2021-075N","EPOCH":"2026-03-09T20:49:20.209728","MEAN_MOTION":13.17649039,"ECCENTRICITY":0.00016838,"INCLINATION":87.9151,"RA_OF_ASC_NODE":25.59,"ARG_OF_PERICENTER":79.4707,"MEAN_ANOMALY":280.6614,"EPHEMERIS_TYPE":0,"CLASSIFICATION_TYPE":"U","NORAD_CAT_ID":49087,"ELEMENT_SET_NO":999,"REV_AT_EPOCH":22054,"BSTAR":-0.00038805506,"MEAN_MOTION_DOT":-1.38e-6,"MEAN_MOTION_DDOT":0},{"OBJECT_NAME":"OPS 4682 DEB","OBJECT_ID":"1965-027D","EPOCH":"2026-03-09T22:50:18.506976","MEAN_MOTION":13.14636756,"ECCENTRICITY":0.00216128,"INCLINATION":89.8629,"RA_OF_ASC_NODE":220.946,"ARG_OF_PERICENTER":59.3785,"MEAN_ANOMALY":61.536,"EPHEMERIS_TYPE":0,"CLASSIFICATION_TYPE":"U","NORAD_CAT_ID":1389,"ELEMENT_SET_NO":999,"REV_AT_EPOCH":89764,"BSTAR":0.0020373573,"MEAN_MOTION_DOT":7.67e-6,"MEAN_MOTION_DDOT":0}]
